STARLINK-36147          
1 66987U 25288AE  26005.05813205  .00131163  00000+0  21980-2 0  9994
2 66987  42.9998  27.3225 0001388 225.7418 134.3328 15.50659031  5508
YAOGAN-47               
1 66988U 25289A   25362.17815560  .00004855  00000+0  20730-3 0  9990
2 66988  97.5253  67.3364 0000855 117.9958 242.1365 15.23366104  2890
CZ-4B R/B               
1 66989U 25289B   26005.16215182  .00148536  89411-5  61643-3 0  9991
2 66989  97.5198  77.2874 0130509 273.9741  84.6612 15.73780002  4245
TJS-22                  
1 66990U 25290A   26004.32065056 -.00000004  00000+0  00000+0 0  9990
2 66990   1.9321 285.0601 0003284 347.8042  12.9536  1.00271209   384
CZ-3B R/B               
1 66991U 25290B   25349.72468800  .00057911 -20514-6  75879-3 0  9998
2 66991  28.4636 300.4666 7240884 182.7002 168.6250  2.38388611   165
2025-292A               
1 66993U 25292A   26005.15006935  .00006222  00000+0  44456-3 0  9992
2 66993  97.6501  82.4716 0015278 189.1454 170.9496 15.04750070  3914
2025-292B               
1 66994U 25292B   26005.14919866  .00006772  00000+0  48264-3 0  9999
2 66994  97.6511  82.4757 0015094 189.4250 170.6695 15.04819460  3911
2025-292C               
1 66995U 25292C   26005.14969916  .00007289  00000+0  52024-3 0  9994
2 66995  97.6502  82.4721 0015260 187.7357 172.3637 15.04735210  3912
2025-292D               
1 66996U 25292D   26005.14872260  .00005175  00000+0  37028-3 0  9999
2 66996  97.6498  82.4718 0014444 191.3037 168.7866 15.04788449  3917
2025-292E               
1 66997U 25292E   26005.14690225  .00005820  00000+0  41424-3 0  9991
2 66997  97.6519  82.4811 0014762 192.6602 167.4255 15.04933789  3907
2025-292F               
1 66998U 25292F   26005.14378914  .00007250  00000+0  51153-3 0  9999
2 66998  97.6539  82.4916 0015887 193.1293 166.9522 15.05159509  3910
2025-292G               
1 66999U 25292G   26005.14268387  .00007119  00000+0  50164-3 0  9997
2 66999  97.6547  82.4960 0015355 194.7925 165.2854 15.05224366  3912
