CCSDS_OMM_VERS = 2.0
CREATION_DATE  = 
ORIGINATOR     = 

OBJECT_NAME    = STARLINK-36147
OBJECT_ID      = 2025-288AE
CENTER_NAME    = EARTH
REF_FRAME      = TEME
TIME_SYSTEM    = UTC
MEAN_ELEMENT_THEORY = SGP/SGP4

EPOCH          = 2026-01-05T01:23:42.609120
MEAN_MOTION    = 15.50659031
ECCENTRICITY   = .0001388
INCLINATION    = 42.9998
RA_OF_ASC_NODE = 27.3225
ARG_OF_PERICENTER = 225.7418
MEAN_ANOMALY   = 134.3328

EPHEMERIS_TYPE = 0
CLASSIFICATION_TYPE = U
NORAD_CAT_ID   = 66987
ELEMENT_SET_NO = 999
REV_AT_EPOCH   = 550
BSTAR          = .2198E-2
MEAN_MOTION_DOT = .131163E-2
MEAN_MOTION_DDOT = 0

CCSDS_OMM_VERS = 2.0
CREATION_DATE  = 
ORIGINATOR     = 

OBJECT_NAME    = YAOGAN-47
OBJECT_ID      = 2025-289A
CENTER_NAME    = EARTH
REF_FRAME      = TEME
TIME_SYSTEM    = UTC
MEAN_ELEMENT_THEORY = SGP/SGP4

EPOCH          = 2025-12-28T04:16:32.643840
MEAN_MOTION    = 15.23366104
ECCENTRICITY   = .00008556
INCLINATION    = 97.5253
RA_OF_ASC_NODE = 67.3364
ARG_OF_PERICENTER = 117.9958
MEAN_ANOMALY   = 242.1365

EPHEMERIS_TYPE = 0
CLASSIFICATION_TYPE = U
NORAD_CAT_ID   = 66988
ELEMENT_SET_NO = 999
REV_AT_EPOCH   = 289
BSTAR          = .2072964E-3
MEAN_MOTION_DOT = .4855E-4
MEAN_MOTION_DDOT = 0

CCSDS_OMM_VERS = 2.0
CREATION_DATE  = 
ORIGINATOR     = 

OBJECT_NAME    = CZ-4B R/B
OBJECT_ID      = 2025-289B
CENTER_NAME    = EARTH
REF_FRAME      = TEME
TIME_SYSTEM    = UTC
MEAN_ELEMENT_THEORY = SGP/SGP4

EPOCH          = 2026-01-05T03:53:29.917248
MEAN_MOTION    = 15.73780002
ECCENTRICITY   = .0130509
INCLINATION    = 97.5198
RA_OF_ASC_NODE = 77.2874
ARG_OF_PERICENTER = 273.9741
MEAN_ANOMALY   = 84.6612

EPHEMERIS_TYPE = 0
CLASSIFICATION_TYPE = U
NORAD_CAT_ID   = 66989
ELEMENT_SET_NO = 999
REV_AT_EPOCH   = 424
BSTAR          = .61643E-3
MEAN_MOTION_DOT = .148536E-2
MEAN_MOTION_DDOT = .89411E-5

CCSDS_OMM_VERS = 2.0
CREATION_DATE  = 
ORIGINATOR     = 

OBJECT_NAME    = TJS-22
OBJECT_ID      = 2025-290A
CENTER_NAME    = EARTH
REF_FRAME      = TEME
TIME_SYSTEM    = UTC
MEAN_ELEMENT_THEORY = SGP/SGP4

EPOCH          = 2026-01-04T07:41:44.208384
MEAN_MOTION    = 1.00271209
ECCENTRICITY   = .0003284
INCLINATION    = 1.9321
RA_OF_ASC_NODE = 285.0601
ARG_OF_PERICENTER = 347.8042
MEAN_ANOMALY   = 12.9536

EPHEMERIS_TYPE = 0
CLASSIFICATION_TYPE = U
NORAD_CAT_ID   = 66990
ELEMENT_SET_NO = 999
REV_AT_EPOCH   = 38
BSTAR          = 0
MEAN_MOTION_DOT = -.4E-7
MEAN_MOTION_DDOT = 0

CCSDS_OMM_VERS = 2.0
CREATION_DATE  = 
ORIGINATOR     = 

OBJECT_NAME    = CZ-3B R/B
OBJECT_ID      = 2025-290B
CENTER_NAME    = EARTH
REF_FRAME      = TEME
TIME_SYSTEM    = UTC
MEAN_ELEMENT_THEORY = SGP/SGP4

EPOCH          = 2025-12-15T17:23:33.043200
MEAN_MOTION    = 2.38388611
ECCENTRICITY   = .7240884
INCLINATION    = 28.4636
RA_OF_ASC_NODE = 300.4666
ARG_OF_PERICENTER = 182.7002
MEAN_ANOMALY   = 168.6250

EPHEMERIS_TYPE = 0
CLASSIFICATION_TYPE = U
NORAD_CAT_ID   = 66991
ELEMENT_SET_NO = 999
REV_AT_EPOCH   = 16
BSTAR          = .75879E-3
MEAN_MOTION_DOT = .57911E-3
MEAN_MOTION_DDOT = -.20514E-6

CCSDS_OMM_VERS = 2.0
CREATION_DATE  = 
ORIGINATOR     = 

OBJECT_NAME    = 2025-292A
OBJECT_ID      = 2025-292A
CENTER_NAME    = EARTH
REF_FRAME      = TEME
TIME_SYSTEM    = UTC
MEAN_ELEMENT_THEORY = SGP/SGP4

EPOCH          = 2026-01-05T03:36:05.991840
MEAN_MOTION    = 15.04750070
ECCENTRICITY   = .0015278
INCLINATION    = 97.6501
RA_OF_ASC_NODE = 82.4716
ARG_OF_PERICENTER = 189.1454
MEAN_ANOMALY   = 170.9496

EPHEMERIS_TYPE = 0
CLASSIFICATION_TYPE = U
NORAD_CAT_ID   = 66993
ELEMENT_SET_NO = 999
REV_AT_EPOCH   = 391
BSTAR          = .44456E-3
MEAN_MOTION_DOT = .6222E-4
MEAN_MOTION_DDOT = 0

CCSDS_OMM_VERS = 2.0
CREATION_DATE  = 
ORIGINATOR     = 

OBJECT_NAME    = 2025-292B
OBJECT_ID      = 2025-292B
CENTER_NAME    = EARTH
REF_FRAME      = TEME
TIME_SYSTEM    = UTC
MEAN_ELEMENT_THEORY = SGP/SGP4

EPOCH          = 2026-01-05T03:34:50.764224
MEAN_MOTION    = 15.04819460
ECCENTRICITY   = .0015094
INCLINATION    = 97.6511
RA_OF_ASC_NODE = 82.4757
ARG_OF_PERICENTER = 189.4250
MEAN_ANOMALY   = 170.6695

EPHEMERIS_TYPE = 0
CLASSIFICATION_TYPE = U
NORAD_CAT_ID   = 66994
ELEMENT_SET_NO = 999
REV_AT_EPOCH   = 391
BSTAR          = .48264E-3
MEAN_MOTION_DOT = .6772E-4
MEAN_MOTION_DDOT = 0

CCSDS_OMM_VERS = 2.0
CREATION_DATE  = 
ORIGINATOR     = 

OBJECT_NAME    = 2025-292C
OBJECT_ID      = 2025-292C
CENTER_NAME    = EARTH
REF_FRAME      = TEME
TIME_SYSTEM    = UTC
MEAN_ELEMENT_THEORY = SGP/SGP4

EPOCH          = 2026-01-05T03:35:34.007424
MEAN_MOTION    = 15.04735210
ECCENTRICITY   = .001526
INCLINATION    = 97.6502
RA_OF_ASC_NODE = 82.4721
ARG_OF_PERICENTER = 187.7357
MEAN_ANOMALY   = 172.3637

EPHEMERIS_TYPE = 0
CLASSIFICATION_TYPE = U
NORAD_CAT_ID   = 66995
ELEMENT_SET_NO = 999
REV_AT_EPOCH   = 391
BSTAR          = .52024E-3
MEAN_MOTION_DOT = .7289E-4
MEAN_MOTION_DDOT = 0

CCSDS_OMM_VERS = 2.0
CREATION_DATE  = 
ORIGINATOR     = 

OBJECT_NAME    = 2025-292D
OBJECT_ID      = 2025-292D
CENTER_NAME    = EARTH
REF_FRAME      = TEME
TIME_SYSTEM    = UTC
MEAN_ELEMENT_THEORY = SGP/SGP4

EPOCH          = 2026-01-05T03:34:09.632640
MEAN_MOTION    = 15.04788449
ECCENTRICITY   = .0014444
INCLINATION    = 97.6498
RA_OF_ASC_NODE = 82.4718
ARG_OF_PERICENTER = 191.3037
MEAN_ANOMALY   = 168.7866

EPHEMERIS_TYPE = 0
CLASSIFICATION_TYPE = U
NORAD_CAT_ID   = 66996
ELEMENT_SET_NO = 999
REV_AT_EPOCH   = 391
BSTAR          = .37028E-3
MEAN_MOTION_DOT = .5175E-4
MEAN_MOTION_DDOT = 0

CCSDS_OMM_VERS = 2.0
CREATION_DATE  = 
ORIGINATOR     = 

OBJECT_NAME    = 2025-292E
OBJECT_ID      = 2025-292E
CENTER_NAME    = EARTH
REF_FRAME      = TEME
TIME_SYSTEM    = UTC
MEAN_ELEMENT_THEORY = SGP/SGP4

EPOCH          = 2026-01-05T03:31:32.354400
MEAN_MOTION    = 15.04933789
ECCENTRICITY   = .0014762
INCLINATION    = 97.6519
RA_OF_ASC_NODE = 82.4811
ARG_OF_PERICENTER = 192.6602
MEAN_ANOMALY   = 167.4255

EPHEMERIS_TYPE = 0
CLASSIFICATION_TYPE = U
NORAD_CAT_ID   = 66997
ELEMENT_SET_NO = 999
REV_AT_EPOCH   = 390
BSTAR          = .41424E-3
MEAN_MOTION_DOT = .582E-4
MEAN_MOTION_DDOT = 0

CCSDS_OMM_VERS = 2.0
CREATION_DATE  = 
ORIGINATOR     = 

OBJECT_NAME    = 2025-292F
OBJECT_ID      = 2025-292F
CENTER_NAME    = EARTH
REF_FRAME      = TEME
TIME_SYSTEM    = UTC
MEAN_ELEMENT_THEORY = SGP/SGP4

EPOCH          = 2026-01-05T03:27:03.381696
MEAN_MOTION    = 15.05159509
ECCENTRICITY   = .0015887
INCLINATION    = 97.6539
RA_OF_ASC_NODE = 82.4916
ARG_OF_PERICENTER = 193.1293
MEAN_ANOMALY   = 166.9522

EPHEMERIS_TYPE = 0
CLASSIFICATION_TYPE = U
NORAD_CAT_ID   = 66998
ELEMENT_SET_NO = 999
REV_AT_EPOCH   = 391
BSTAR          = .51153E-3
MEAN_MOTION_DOT = .725E-4
MEAN_MOTION_DDOT = 0

CCSDS_OMM_VERS = 2.0
CREATION_DATE  = 
ORIGINATOR     = 

OBJECT_NAME    = 2025-292G
OBJECT_ID      = 2025-292G
CENTER_NAME    = EARTH
REF_FRAME      = TEME
TIME_SYSTEM    = UTC
MEAN_ELEMENT_THEORY = SGP/SGP4

EPOCH          = 2026-01-05T03:25:27.886368
MEAN_MOTION    = 15.05224366
ECCENTRICITY   = .0015355
INCLINATION    = 97.6547
RA_OF_ASC_NODE = 82.4960
ARG_OF_PERICENTER = 194.7925
MEAN_ANOMALY   = 165.2854

EPHEMERIS_TYPE = 0
CLASSIFICATION_TYPE = U
NORAD_CAT_ID   = 66999
ELEMENT_SET_NO = 999
REV_AT_EPOCH   = 391
BSTAR          = .50164E-3
MEAN_MOTION_DOT = .7119E-4
MEAN_MOTION_DDOT = 0

